[{"OBJECT_NAME":"KUIPER-00092","OBJECT_ID":"2025-151X","EPOCH":"2026-03-08T23:51:42.351552","MEAN_MOTION":14.7992332,"ECCENTRICITY":9.472e-5,"INCLINATION":51.9004,"RA_OF_ASC_NODE":293.6718,"ARG_OF_PERICENTER":52.0654,"MEAN_ANOMALY":308.0393,"EPHEMERIS_TYPE":0,"CLASSIFICATION_TYPE":"U","NORAD_CAT_ID":64837,"ELEMENT_SET_NO":999,"REV_AT_EPOCH":3655,"BSTAR":0.00049486471,"MEAN_MOTION_DOT":3.552e-5,"MEAN_MOTION_DDOT":0},{"OBJECT_NAME":"OKEAN-O","OBJECT_ID":"1999-039A","EPOCH":"2026-03-09T17:16:10.736544","MEAN_MOTION":14.80335142,"ECCENTRICITY":0.00012718,"INCLINATION":97.9442,"RA_OF_ASC_NODE":128.6108,"ARG_OF_PERICENTER":70.3084,"MEAN_ANOMALY":289.8265,"EPHEMERIS_TYPE":0,"CLASSIFICATION_TYPE":"U","NORAD_CAT_ID":25860,"ELEMENT_SET_NO":999,"REV_AT_EPOCH":43439,"BSTAR":0.0001136203,"MEAN_MOTION_DOT":8.14e-6,"MEAN_MOTION_DDOT":0}]
